35P/Herschel-Rigollet,e,65.273,356.732,28.968,28.5484,0.006461,0.9743194,0.000,02/04.5789/2092,2000,g  9.0,4.0
# From MPEC 2022-ED3
36P/Whipple,e,9.9528,181.8409,201.0126,4.136650,0.1171469,0.26910290,105.1049,11/16.0/2022,2000,g  8.5,6.0
# From MPEC 2021-F20
37P/Forbes,e,8.9527,314.5670,330.1089,3.461524,0.1530394,0.53317877,253.6142,11/16.0/2022,2000,g 13.8,4.0
# From MPEC 2018-S50
38P/Stephan-Oterma,e,18.3860,77.9115,359.5012,11.23691,0.0261658,0.85936901,38.3407,11/16.0/2022,2000,g  3.5,12.0
# From MPEC 2022-A21
39P/Oterma,e,1.5445,297.8532,99.7701,7.301169,0.0499592,0.21781575,349.0364,11/16.0/2022,2000,g  7.0,6.0
# From MPC100283
40P/Vaisala,e,11.4665,133.7374,47.3958,4.954823,0.0893639,0.63035201,262.0811,11/16.0/2022,2000,g  5.5,12.0
# From MPC105240
41P/Tuttle-Giacobini-Kresak,e,9.2206,140.9884,62.2089,3.088102,0.1816213,0.65993914,11.5497,11/16.0/2022,2000,g 10.0,16.0
# From MPC 94283
42P/Neujmin,e,3.9912,150.1753,147.2319,4.873739,0.0916032,0.58473928,254.1585,11/16.0/2022,2000,g 13.0,6.0
# From MPEC 2022-C56
43P/Wolf-Harrington,e,9.3318,244.0399,224.0839,4.319877,0.1097734,0.43522540,250.8526,11/16.0/2022,2000,g  8.0,6.0
# From MPEC 2022-VC5
44P/Reinmuth,e,5.8962,286.4335,58.0563,3.690064,0.1390443,0.42755918,28.7684,11/16.0/2022,2000,g  8.3,6.0
# From MPEC 2022-O01
45P/Honda-Mrkos-Pajdusakova,e,4.3228,87.6973,327.9149,3.055412,0.1845438,0.81763610,37.4702,11/16.0/2022,2000,g 13.5,8.0
# From MPEC 2021-O56
46P/Wirtanen,e,11.7486,82.1603,356.3264,3.091725,0.1813021,0.65864881,260.1803,11/16.0/2022,2000,g 14.0,6.0
# From MPEC 2022-HC2
47P/Ashbrook-Jackson,e,13.0410,356.9208,357.7338,4.122298,0.1177592,0.31870559,233.2720,11/16.0/2022,2000,g  1.0,11.2
# From MPEC 2021-F20
48P/Johnson,e,12.2014,110.0996,216.7304,3.501053,0.1504548,0.42722638,234.0281,11/16.0/2022,2000,g 12.4,4.0
# From MPEC 2021-F20
49P/Arend-Rigaux,e,19.0506,118.7924,332.9194,3.569517,0.1461470,0.59849721,231.8347,11/16.0/2022,2000,g 13.4,4.0
# From MPEC 2015-S97
50P/Arend,e,19.1007,355.1766,49.3391,4.087653,0.1192595,0.52955626,295.1371,11/16.0/2022,2000,g  9.5,6.0
# From MPEC 2022-UE6
51P/Harrington,e,5.4258,83.6665,269.2728,3.708662,0.1379997,0.54358510,6.3040,11/16.0/2022,2000,g 10.0,8.0
# From NK 3014
51P-A/Harrington,e,5.4258,83.6668,269.2469,3.710021,0.1379239,0.54377473,5.9470,11/16.0/2022,2000,g 10.0,8.0
# From MPEC 2022-VC5
51P-D/Harrington,e,5.4264,83.6542,269.2929,3.709025,0.1379795,0.54371388,6.2443,11/16.0/2022,2000,g 16.0,8.0
# From MPEC 2022-L66
52P/Harrington-Abell,e,10.2311,336.8332,139.5667,3.864085,0.1297580,0.54022350,52.7889,11/16.0/2022,2000,g 13.5,6.0
# From MPC100283
53P/Van Biesbroeck,e,6.6088,148.8170,134.5042,5.431479,0.0778622,0.55075519,186.2267,11/16.0/2022,2000,g  7.7,4.8
# From MPC 89011
54P/de Vico-Swift-NEAT,e,6.0645,358.8156,1.8671,3.789020,0.1336330,0.42644836,272.1121,11/16.0/2022,2000,g  9.0,4.0
# From MPC 31070
55P/Tempel-Tuttle,e,162.4945,235.4175,172.4752,10.35690,0.0295706,0.90544557,268.0989,11/16.0/2022,2000,g  9.0,4.0
# From MPC101100
56P/Slaughter-Burnham,e,8.1603,345.9879,44.0225,5.066477,0.0864261,0.50840503,199.4353,11/16.0/2022,2000,g  8.5,6.0
# From MPEC 2022-VC5
57P/duToit-Neujmin-Delporte,e,2.8524,188.7756,115.1640,3.444484,0.1541764,0.50090207,60.8618,11/16.0/2022,2000,g 12.5,6.0
# From MPEC 2021-O56
58P/Jackson-Neujmin,e,13.1076,159.0748,200.5302,4.087802,0.1192530,0.66277402,107.5929,11/16.0/2022,2000,g 15.5,6.0
# From MPEC 2021-F20
59P/Kearns-Kwee,e,9.3432,312.8011,127.5084,4.483774,0.1038098,0.47597431,157.8687,11/16.0/2022,2000,g  7.0,6.0
# From MPEC 2021-F20
60P/Tsuchinshan,e,3.5809,267.4549,216.9858,3.525813,0.1488727,0.53361935,214.3823,11/16.0/2022,2000,g 11.5,6.0
# From MPEC 2022-VC5
61P/Shajn-Schaldach,e,5.9995,162.9640,221.6560,3.691030,0.1389897,0.42405719,3.2244,11/16.0/2022,2000,g  6.0,10.0
# From MPC109147
62P/Tsuchinshan,e,4.7357,68.7250,47.3356,3.368137,0.1594481,0.62522999,295.5916,11/16.0/2022,2000,g  8.0,10.0
# From MPC 84320
63P/Wild,e,19.7276,358.0175,168.9941,5.611766,0.0741404,0.64957021,261.2688,11/16.0/2022,2000,g 10.5,6.0
# From MPEC 2021-F20
64P/Swift-Gehrels,e,8.9489,299.9264,97.1359,4.452661,0.1048998,0.68859742,154.3792,11/16.0/2022,2000,g 13.4,4.0
# From MPEC 2022-UE6
65P/Gunn,e,9.1759,61.9900,213.8909,3.888570,0.1285343,0.24856643,238.6551,11/16.0/2022,2000,g  5.0,6.0
# From MPEC 2021-F20
66P/duToit,e,18.6390,21.7796,257.4804,6.070090,0.0659039,0.78597935,108.2710,11/16.0/2022,2000,g 15.0,4.0
# From MPEC 2022-PB4
67P/Churyumov-Gerasimenko,e,3.8719,36.3290,22.1478,3.456997,0.1533400,0.64983278,58.0994,11/16.0/2022,2000,g 11.0,4.0
# From MPEC 2022-H04
68P/Klemola,e,11.1115,175.0454,153.2367,4.958457,0.0892656,0.63730700,98.4544,11/16.0/2022,2000,g 12.7,4.0
# From MPC114607
69P/Taylor,e,22.0437,104.8081,343.3920,3.884813,0.1287208,0.41374604,172.3032,11/16.0/2022,2000,g  9.5,12.0
# From MPEC 2022-P82
70P/Kojima,e,6.5978,119.2600,1.8046,3.677740,0.1397438,0.45387963,52.8131,11/16.0/2022,2000,g 11.0,6.0
# From MPEC 2022-M88
71P/Clark,e,9.4381,59.3935,209.0681,3.138527,0.1772618,0.49377037,347.9812,11/16.0/2022,2000,g  9.8,6.0
# From MPC 89011
72P/Denning-Fujikawa,e,10.9486,26.7014,346.7261,4.307754,0.1102371,0.81866215,336.6427,11/16.0/2022,2000,g 17.5,10.0
# From MPEC 2022-VC5
73P/Schwassmann-Wachmann,e,11.2277,69.6087,199.4938,3.092518,0.1812324,0.68537851,14.8987,11/16.0/2022,2000,g 11.5,6.0
# From MPC106348
73P-T/Schwassmann-Wachmann,e,11.2298,69.6113,199.4742,3.093975,0.1811043,0.68557372,14.6318,11/16.0/2022,2000,g 11.5,6.0
# From MPEC 2022-P18
73P-U/Schwassmann-Wachmann,e,11.0694,70.6751,199.8802,2.876395,0.2020372,0.66611148,16.7929,11/16.0/2022,2000,g 19.0,4.0
# From MPEC 2022-P18
73P-V/Schwassmann-Wachmann,e,11.2463,69.4519,199.3292,3.168497,0.1747528,0.69234982,14.5117,11/16.0/2022,2000,g 19.0,4.0
# From MPEC 2022-R15
73P-W/Schwassmann-Wachmann,e,11.6019,67.3159,198.7342,4.591383,0.1001818,0.78208803,8.2691,11/16.0/2022,2000,g 18.2,4.0
# From MPEC 2022-R15
73P-X/Schwassmann-Wachmann,e,11.2556,69.5266,199.3767,3.096344,0.1808965,0.68548569,14.9575,11/16.0/2022,2000,g 17.6,4.0
# From MPEC 2022-R15
73P-Y/Schwassmann-Wachmann,e,11.1980,69.7661,199.4677,3.034412,0.1864628,0.67998544,15.6092,11/16.0/2022,2000,g 17.4,4.0
# From MPEC 2022-P18
73P-BU/Schwassmann-Wachmann,e,11.0694,70.6751,199.8802,2.876395,0.2020372,0.66611148,16.7929,11/16.0/2022,2000,g 19.0,4.0
# From MPEC 2022-P18
73P-BV/Schwassmann-Wachmann,e,11.2463,69.4519,199.3292,3.168497,0.1747528,0.69234982,14.5117,11/16.0/2022,2000,g 19.0,4.0
# From MPEC 2022-R15
73P-BW/Schwassmann-Wachmann,e,11.6019,67.3159,198.7342,4.591383,0.1001818,0.78208803,8.2691,11/16.0/2022,2000,g 18.2,4.0
# From MPEC 2022-R15
73P-BX/Schwassmann-Wachmann,e,11.2556,69.5266,199.3767,3.096344,0.1808965,0.68548569,14.9575,11/16.0/2022,2000,g 17.6,4.0
# From MPEC 2022-R15
73P-BY/Schwassmann-Wachmann,e,11.1980,69.7661,199.4677,3.034412,0.1864628,0.67998544,15.6092,11/16.0/2022,2000,g 17.4,4.0
# From MPEC 2022-UY9
74P/Smirnova-Chernykh,e,6.2615,55.6786,138.0604,4.593263,0.1001203,0.09278823,164.6531,11/16.0/2022,2000,g  5.0,6.0
# From MPEC 2022-K19
76P/West-Kohoutek-Ikemura,e,30.4789,84.1044,359.9348,3.470789,0.1524270,0.53863860,170.2162,11/16.0/2022,2000,g  8.0,12.0
# From MPEC 2022-VC5
77P/Longmore,e,24.3189,14.7682,196.7460,3.623900,0.1428696,0.35188559,340.2604,11/16.0/2022,2000,g  7.0,8.0
# From MPEC 2021-O56
78P/Gehrels,e,6.2564,210.5169,192.6406,3.737189,0.1364226,0.46282098,180.3598,11/16.0/2022,2000,g  5.5,8.0
# From MPC 94675
79P/du Toit-Hartley,e,3.1485,280.5209,281.7855,2.943507,0.1951670,0.61908770,297.8610,11/16.0/2022,2000,g 16.0,4.0
# From MPEC 2014-P41
80P/Peters-Hartley,e,29.9228,259.7965,339.2470,4.023921,0.1221040,0.59856936,357.2081,11/16.0/2022,2000,g  9.0,4.0
# From MPEC 2022-VC5
81P/Wild,e,3.2365,136.0987,41.6326,3.454183,0.1535275,0.53724656,355.4516,11/16.0/2022,2000,g  7.0,6.0
# From MPC133426
82P/Gehrels,e,1.1291,239.3193,226.3860,4.133489,0.1172814,0.12196748,188.4799,11/16.0/2022,2000,g 15.0,4.0
# From MPEC 2020-FB5
84P/Giclas,e,7.5503,108.1447,281.6222,3.549802,0.1473662,0.51605375,131.8558,11/16.0/2022,2000,g  9.5,8.0
# From MPEC 2022-QD9
86P/Wild,e,15.4740,72.3454,179.4799,3.602681,0.1441337,0.37236328,40.5325,11/16.0/2022,2000,g 11.0,6.0
# From MPEC 2020-SI8
87P/Bus,e,3.3705,181.3492,28.8301,3.473504,0.1522483,0.41635840,132.9906,11/16.0/2022,2000,g  7.2,10.0
# From MPEC 2022-ED3
88P/Howell,e,4.3822,56.6716,235.9363,3.106014,0.1800524,0.56376348,140.5662,11/16.0/2022,2000,g 11.0,6.0
# From MPC100283
89P/Russell,e,12.0714,41.3485,250.3980,3.753585,0.1355298,0.40818347,292.7060,11/16.0/2022,2000,g 11.5,6.0
# From MPEC 2022-K19
90P/Gehrels,e,9.6514,13.2056,29.0583,6.051135,0.0662138,0.51095089,130.6820,11/16.0/2022,2000,g  8.5,6.0
# From MPEC 2021-S45
91P/Russell,e,14.1592,246.7929,356.0315,3.903642,0.1277907,0.33411995,93.8308,11/16.0/2022,2000,g  7.5,6.0
# From MPEC 2014-J58
92P/Sanguin,e,19.5084,181.3616,163.8040,5.343073,0.0798027,0.66101218,224.2886,11/16.0/2022,2000,g 12.0,6.0
# From NK 2707
93P/Lovas,e,12.2033,339.6349,74.8354,4.380115,0.1075167,0.61351076,224.0997,11/16.0/2022,2000,g  9.0,4.0
# From MPEC 2022-VC5
94P/Russell,e,6.1878,70.8574,92.4275,3.508852,0.1499535,0.36531198,332.0911,11/16.0/2022,2000,g  9.0,6.0
# From MPC 75717
95P/Chiron,e,6.9194,209.3026,339.4869,13.71241,0.0194103,0.37621260,190.8481,11/16.0/2022,2000,g  6.5,2.0
# From MPEC 2022-ST7
96P/Machholz,e,57.5036,93.9550,14.7485,3.030456,0.1868281,0.96158199,345.7844,11/16.0/2022,2000,g 13.0,4.8
# From MPEC 2022-C56
97P/Metcalf-Brewington,e,17.9521,184.0767,229.9970,4.761160,0.0948713,0.46012127,25.9339,11/16.0/2022,2000,g  5.5,6.0
# From MPEC 2021-W31
98P/Takamizawa,e,10.5611,114.6807,157.8074,3.793856,0.1333776,0.56220354,90.7485,11/16.0/2022,2000,g  9.0,8.0
# From MPEC 2022-UE6
99P/Kowal,e,4.3399,28.1018,174.8703,6.102772,0.0653752,0.22888659,14.2488,11/16.0/2022,2000,g  4.5,6.0
# From MPEC 2022-QD9
100P/Hartley,e,25.5667,37.6875,181.9678,3.431603,0.1550453,0.41204703,15.0484,11/16.0/2022,2000,g  9.0,8.0
